STARLINK-31862          
1 59786U 24093E   26068.45657820 -.00001131  00000+0 -31587-4 0  9997
2 59786  43.0057 209.8847 0001743 271.3935  88.6717 15.27569338102660
PELICAN-6               
1 66703U 25276AP  26068.70709364  .00077979  00000+0  29726-2 0  9998
2 66703  97.4276 144.2072 0003569 157.8575 202.2819 15.26377980 15334
